1 26871U 01031A   12096.36859902 -.00000291  00000-0  10000-3 0  5284
2 26871 002.0965 073.7443 0003845 333.1150 219.6784 01.00260516 39260